ARIANE 5 DEB [SYLDA]    
1 28914U 05049D   26116.94005664 -.00000143  00000+0  70462-3 0  9992
2 28914   4.7973 355.5822 7164642 254.8450 333.1404  2.23708112166157
EUTELSAT 174A           
1 28924U 05052A   26116.78516863  .00000001  00000+0  00000+0 0  9996
2 28924   4.0918  77.1405 0006440 318.7915 275.4962  1.00272763 51819
ECHOSTAR 10             
1 28935U 06003A   26116.90004081 -.00000066  00000+0  00000+0 0  9995
2 28935   0.0528  54.8887 0002215 297.3242  76.4984  1.00271833 73949
BLOCK DM-SL R/B         
1 28936U 06003B   26116.97081281 -.00000002  00000+0  00000+0 0  9990
2 28936   0.1585 323.5917 6791725 152.1304 203.0429  2.19497449161953
SPAINSAT                
1 28945U 06007A   26116.48814593 -.00000229  00000+0  00000+0 0  9991
2 28945   0.4307  87.2403 0004951 301.8075 330.9719  1.00274004 73708
BREEZE-M R/B            
1 28998U 03024C   26116.67901992 -.00000138  00000+0  00000+0 0  9995
2 28998  16.6984 137.5094 5053789  63.2598  45.9189  1.82403653 85248
SCATHA AKM              
1 29000U 79007C   26116.64053975 -.00000012  00000+0  00000+0 0  9991
2 29000   9.7756 277.6518 1762423 137.8659  34.2098  1.01589049 47427
SATCOM 3 DEB            
1 29003U 79101F   26107.09871611 -.00000131  00000+0  00000+0 0  9995
2 29003   9.1362  47.9521 4895891 178.5797 339.4409  1.83284986 85489
SATCOM 3 DEB            
1 29004U 79101G   26116.67485990 -.00000143  00000+0  00000+0 0  9994
2 29004   8.3649  92.2360 4779933  88.3252  48.2375  1.81209789133820
EKRAN 2 DEB             
1 29014U 77092K   26116.74611693  .00000085  00000+0  00000+0 0  9995
2 29014   4.2655 274.9889 0019787 348.1628  53.0990  1.00143217 46769
JCSAT-5A                
1 29045U 06010A   26116.80540306 -.00000338  00000+0  00000+0 0  9992
2 29045   0.9779  84.7380 0001767 344.7337 207.3150  1.00269821 73250
BLOCK DM-SL R/B         
1 29046U 06010B   26116.39420947 -.00000077  00000+0  00000+0 0  9995
2 29046   0.0285  39.2023 6779396 116.0666 264.1446  2.19415775160656
ASTRA 1KR               
1 29055U 06012A   26116.92560757  .00000108  00000+0  00000+0 0  9994
2 29055   0.3428  82.5743 0003475 311.9248 172.6362  1.00273789 45188
EWS-G1 (GOES 13)        
1 29155U 06018A   26116.84327655 -.00000220  00000+0  00000+0 0  9996
2 29155   4.4022  77.0270 0061618 275.9146 128.6966  0.98788371 42741
SL-12 R/B(2)            
1 29233U 06022D   26116.47479269  .00000063  00000+0  00000+0 0  9990
2 29233  12.4499  22.8950 0051608  40.1165 166.4587  1.01007915 73240
GALAXY 16 (G-16)        
1 29236U 06023A   26116.83079650 -.00000139  00000+0  00000+0 0  9999
2 29236   0.0208 227.6981 0003128 181.7838   5.4417  1.00274271 72452
BLOCK DM-SL R/B         
1 29237U 06023B   26116.76116631 -.00000221  00000+0  00000+0 0  9995
2 29237   0.6225  32.9953 6627770  20.3407 350.7643  2.15892461156561
