[{"OBJECT_NAME":"ARIANE 5 DEB [SYLDA]","OBJECT_ID":"2005-049D","EPOCH":"2026-04-26T22:33:40.893696","MEAN_MOTION":2.23708112,"ECCENTRICITY":0.71646423,"INCLINATION":4.7973,"RA_OF_ASC_NODE":355.5822,"ARG_OF_PERICENTER":254.845,"MEAN_ANOMALY":333.1404,"EPHEMERIS_TYPE":0,"CLASSIFICATION_TYPE":"U","NORAD_CAT_ID":28914,"ELEMENT_SET_NO":999,"REV_AT_EPOCH":16615,"BSTAR":0.00070462351,"MEAN_MOTION_DOT":-1.43e-6,"MEAN_MOTION_DDOT":0},{"OBJECT_NAME":"EUTELSAT 174A","OBJECT_ID":"2005-052A","EPOCH":"2026-04-26T18:50:38.569632","MEAN_MOTION":1.00272763,"ECCENTRICITY":0.00064404,"INCLINATION":4.0918,"RA_OF_ASC_NODE":77.1405,"ARG_OF_PERICENTER":318.7915,"MEAN_ANOMALY":275.4962,"EPHEMERIS_TYPE":0,"CLASSIFICATION_TYPE":"U","NORAD_CAT_ID":28924,"ELEMENT_SET_NO":999,"REV_AT_EPOCH":5181,"BSTAR":0,"MEAN_MOTION_DOT":1.0e-8,"MEAN_MOTION_DDOT":0},{"OBJECT_NAME":"ECHOSTAR 10","OBJECT_ID":"2006-003A","EPOCH":"2026-04-26T21:36:03.525984","MEAN_MOTION":1.00271833,"ECCENTRICITY":0.00022154,"INCLINATION":0.0528,"RA_OF_ASC_NODE":54.8887,"ARG_OF_PERICENTER":297.3242,"MEAN_ANOMALY":76.4984,"EPHEMERIS_TYPE":0,"CLASSIFICATION_TYPE":"U","NORAD_CAT_ID":28935,"ELEMENT_SET_NO":999,"REV_AT_EPOCH":7394,"BSTAR":0,"MEAN_MOTION_DOT":-6.6e-7,"MEAN_MOTION_DDOT":0},{"OBJECT_NAME":"BLOCK DM-SL R/B","OBJECT_ID":"2006-003B","EPOCH":"2026-04-26T23:17:58.226784","MEAN_MOTION":2.19497449,"ECCENTRICITY":0.67917252,"INCLINATION":0.1585,"RA_OF_ASC_NODE":323.5917,"ARG_OF_PERICENTER":152.1304,"MEAN_ANOMALY":203.0429,"EPHEMERIS_TYPE":0,"CLASSIFICATION_TYPE":"U","NORAD_CAT_ID":28936,"ELEMENT_SET_NO":999,"REV_AT_EPOCH":16195,"BSTAR":0,"MEAN_MOTION_DOT":-2.0e-8,"MEAN_MOTION_DDOT":0},{"OBJECT_NAME":"SPAINSAT","OBJECT_ID":"2006-007A","EPOCH":"2026-04-26T11:42:55.808352","MEAN_MOTION":1.00274004,"ECCENTRICITY":0.00049511,"INCLINATION":0.4307,"RA_OF_ASC_NODE":87.2403,"ARG_OF_PERICENTER":301.8075,"MEAN_ANOMALY":330.9719,"EPHEMERIS_TYPE":0,"CLASSIFICATION_TYPE":"U","NORAD_CAT_ID":28945,"ELEMENT_SET_NO":999,"REV_AT_EPOCH":7370,"BSTAR":0,"MEAN_MOTION_DOT":-2.29e-6,"MEAN_MOTION_DDOT":0},{"OBJECT_NAME":"BREEZE-M R/B","OBJECT_ID":"2003-024C","EPOCH":"2026-04-26T16:17:47.321088","MEAN_MOTION":1.82403653,"ECCENTRICITY":0.50537897,"INCLINATION":16.6984,"RA_OF_ASC_NODE":137.5094,"ARG_OF_PERICENTER":63.2598,"MEAN_ANOMALY":45.9189,"EPHEMERIS_TYPE":0,"CLASSIFICATION_TYPE":"U","NORAD_CAT_ID":28998,"ELEMENT_SET_NO":999,"REV_AT_EPOCH":8524,"BSTAR":0,"MEAN_MOTION_DOT":-1.38e-6,"MEAN_MOTION_DDOT":0},{"OBJECT_NAME":"SCATHA AKM","OBJECT_ID":"1979-007C","EPOCH":"2026-04-26T15:22:22.634400","MEAN_MOTION":1.01589049,"ECCENTRICITY":0.17624239,"INCLINATION":9.7756,"RA_OF_ASC_NODE":277.6518,"ARG_OF_PERICENTER":137.8659,"MEAN_ANOMALY":34.2098,"EPHEMERIS_TYPE":0,"CLASSIFICATION_TYPE":"U","NORAD_CAT_ID":29000,"ELEMENT_SET_NO":999,"REV_AT_EPOCH":4742,"BSTAR":0,"MEAN_MOTION_DOT":-1.2e-7,"MEAN_MOTION_DDOT":0},{"OBJECT_NAME":"SATCOM 3 DEB","OBJECT_ID":"1979-101F","EPOCH":"2026-04-17T02:22:09.071904","MEAN_MOTION":1.83284986,"ECCENTRICITY":0.48958919,"INCLINATION":9.1362,"RA_OF_ASC_NODE":47.9521,"ARG_OF_PERICENTER":178.5797,"MEAN_ANOMALY":339.4409,"EPHEMERIS_TYPE":0,"CLASSIFICATION_TYPE":"U","NORAD_CAT_ID":29003,"ELEMENT_SET_NO":999,"REV_AT_EPOCH":8548,"BSTAR":0,"MEAN_MOTION_DOT":-1.31e-6,"MEAN_MOTION_DDOT":0},{"OBJECT_NAME":"SATCOM 3 DEB","OBJECT_ID":"1979-101G","EPOCH":"2026-04-26T16:11:47.895360","MEAN_MOTION":1.81209789,"ECCENTRICITY":0.47799333,"INCLINATION":8.3649,"RA_OF_ASC_NODE":92.236,"ARG_OF_PERICENTER":88.3252,"MEAN_ANOMALY":48.2375,"EPHEMERIS_TYPE":0,"CLASSIFICATION_TYPE":"U","NORAD_CAT_ID":29004,"ELEMENT_SET_NO":999,"REV_AT_EPOCH":13382,"BSTAR":0,"MEAN_MOTION_DOT":-1.43e-6,"MEAN_MOTION_DDOT":0},{"OBJECT_NAME":"EKRAN 2 DEB","OBJECT_ID":"1977-092K","EPOCH":"2026-04-26T17:54:24.502752","MEAN_MOTION":1.00143217,"ECCENTRICITY":0.00197872,"INCLINATION":4.2655,"RA_OF_ASC_NODE":274.9889,"ARG_OF_PERICENTER":348.1628,"MEAN_ANOMALY":53.099,"EPHEMERIS_TYPE":0,"CLASSIFICATION_TYPE":"U","NORAD_CAT_ID":29014,"ELEMENT_SET_NO":999,"REV_AT_EPOCH":4676,"BSTAR":0,"MEAN_MOTION_DOT":8.5e-7,"MEAN_MOTION_DDOT":0},{"OBJECT_NAME":"JCSAT-5A","OBJECT_ID":"2006-010A","EPOCH":"2026-04-26T19:19:46.824384","MEAN_MOTION":1.00269821,"ECCENTRICITY":0.00017672,"INCLINATION":0.9779,"RA_OF_ASC_NODE":84.738,"ARG_OF_PERICENTER":344.7337,"MEAN_ANOMALY":207.315,"EPHEMERIS_TYPE":0,"CLASSIFICATION_TYPE":"U","NORAD_CAT_ID":29045,"ELEMENT_SET_NO":999,"REV_AT_EPOCH":7325,"BSTAR":0,"MEAN_MOTION_DOT":-3.38e-6,"MEAN_MOTION_DDOT":0},{"OBJECT_NAME":"BLOCK DM-SL R/B","OBJECT_ID":"2006-010B","EPOCH":"2026-04-26T09:27:39.698208","MEAN_MOTION":2.19415775,"ECCENTRICITY":0.67793964,"INCLINATION":0.0285,"RA_OF_ASC_NODE":39.2023,"ARG_OF_PERICENTER":116.0666,"MEAN_ANOMALY":264.1446,"EPHEMERIS_TYPE":0,"CLASSIFICATION_TYPE":"U","NORAD_CAT_ID":29046,"ELEMENT_SET_NO":999,"REV_AT_EPOCH":16065,"BSTAR":0,"MEAN_MOTION_DOT":-7.7e-7,"MEAN_MOTION_DDOT":0},{"OBJECT_NAME":"ASTRA 1KR","OBJECT_ID":"2006-012A","EPOCH":"2026-04-26T22:12:52.494048","MEAN_MOTION":1.00273789,"ECCENTRICITY":0.00034758,"INCLINATION":0.3428,"RA_OF_ASC_NODE":82.5743,"ARG_OF_PERICENTER":311.9248,"MEAN_ANOMALY":172.6362,"EPHEMERIS_TYPE":0,"CLASSIFICATION_TYPE":"U","NORAD_CAT_ID":29055,"ELEMENT_SET_NO":999,"REV_AT_EPOCH":4518,"BSTAR":0,"MEAN_MOTION_DOT":1.08e-6,"MEAN_MOTION_DDOT":0},{"OBJECT_NAME":"EWS-G1 (GOES 13)","OBJECT_ID":"2006-018A","EPOCH":"2026-04-26T20:14:19.093920","MEAN_MOTION":0.98788371,"ECCENTRICITY":0.00616184,"INCLINATION":4.4022,"RA_OF_ASC_NODE":77.027,"ARG_OF_PERICENTER":275.9146,"MEAN_ANOMALY":128.6966,"EPHEMERIS_TYPE":0,"CLASSIFICATION_TYPE":"U","NORAD_CAT_ID":29155,"ELEMENT_SET_NO":999,"REV_AT_EPOCH":4274,"BSTAR":0,"MEAN_MOTION_DOT":-2.2e-6,"MEAN_MOTION_DDOT":0},{"OBJECT_NAME":"SL-12 R/B(2)","OBJECT_ID":"2006-022D","EPOCH":"2026-04-26T11:23:42.088416","MEAN_MOTION":1.01007915,"ECCENTRICITY":0.0051608,"INCLINATION":12.4499,"RA_OF_ASC_NODE":22.895,"ARG_OF_PERICENTER":40.1165,"MEAN_ANOMALY":166.4587,"EPHEMERIS_TYPE":0,"CLASSIFICATION_TYPE":"U","NORAD_CAT_ID":29233,"ELEMENT_SET_NO":999,"REV_AT_EPOCH":7324,"BSTAR":0,"MEAN_MOTION_DOT":6.3e-7,"MEAN_MOTION_DDOT":0},{"OBJECT_NAME":"GALAXY 16 (G-16)","OBJECT_ID":"2006-023A","EPOCH":"2026-04-26T19:56:20.817600","MEAN_MOTION":1.00274271,"ECCENTRICITY":0.00031286,"INCLINATION":0.0208,"RA_OF_ASC_NODE":227.6981,"ARG_OF_PERICENTER":181.7838,"MEAN_ANOMALY":5.4417,"EPHEMERIS_TYPE":0,"CLASSIFICATION_TYPE":"U","NORAD_CAT_ID":29236,"ELEMENT_SET_NO":999,"REV_AT_EPOCH":7245,"BSTAR":0,"MEAN_MOTION_DOT":-1.39e-6,"MEAN_MOTION_DDOT":0},{"OBJECT_NAME":"BLOCK DM-SL R/B","OBJECT_ID":"2006-023B","EPOCH":"2026-04-26T18:16:04.769184","MEAN_MOTION":2.15892461,"ECCENTRICITY":0.66277703,"INCLINATION":0.6225,"RA_OF_ASC_NODE":32.9953,"ARG_OF_PERICENTER":20.3407,"MEAN_ANOMALY":350.7643,"EPHEMERIS_TYPE":0,"CLASSIFICATION_TYPE":"U","NORAD_CAT_ID":29237,"ELEMENT_SET_NO":999,"REV_AT_EPOCH":15656,"BSTAR":0,"MEAN_MOTION_DOT":-2.21e-6,"MEAN_MOTION_DDOT":0}]
